BEIDOU-3 M13 (C32)      
1 43622U 18072A   26087.45555266 -.00000003  00000+0  00000+0 0  9998
2 43622  56.5560  65.3217 0009123 312.6672  47.2493  1.86230907 51159
